satname,norad_id,inclination_deg,eccentricity,mean_motion_rev_per_day,perigee_km,apogee_km,l1,l2
STARLINK-1008,44714,53.0553,0.0001926,15.06393112,545.8988425484631,548.5664949448656,1 44714U 19074B   25318.79213082  .00026767  00000+0  18094-2 0  9993,2 44714  53.0553 342.4104 0001926  94.4987 265.6222 15.06393112331430
STARLINK-1010,44716,53.0277,0.0002486,16.35604519,175.89153314682335,179.15100643856476,1 44716U 19074D   25318.82972781  .04890283  12215-4  59269-3 0  9999,2 44716  53.0277 256.7314 0002486 215.3401 144.7479 16.35604519332613
STARLINK-1011,44717,53.0432,0.0004282,15.95051485,285.3164185682044,291.0254446808476,1 44717U 19074E   25318.91670139  .00499787  11230-3  12595-2 0  9997,2 44717  53.0432 315.6833 0004282  33.7687 107.5695 15.95051485  5901
STARLINK-1012,44718,53.0552,0.0001443,15.06366619,546.3145252245877,548.3132103450316,1 44718U 19074F   25318.77001846  .00016936  00000+0  11541-2 0  9995,2 44718  53.0552 342.5111 0001443  90.4615 269.6539 15.06366619331426
STARLINK-1017,44723,53.0507,0.0003435,15.15992002,515.5997569382671,520.3373814643091,1 44723U 19074L   25318.79068382  .00007621  00000+0  40767-3 0  9995,2 44723  53.0507 338.1036 0003435 350.3736   9.7191 15.15992002331499
STARLINK-1019,44724,53.0539,0.0001261,15.41348306,441.2689948683119,442.98906596118195,1 44724U 19074M   25318.91670139  .01300760  00000+0  28089-1 0  9991,2 44724  53.0539 339.5083 0001261  86.6440 135.8145 15.41348306  5790
STARLINK-1020,44725,53.0559,0.0001605,15.0637881,546.1649741304273,548.388031864889,1 44725U 19074N   25318.50644450  .00001937  00000+0  14899-3 0  9993,2 44725  53.0559   3.6993 0001605 100.5230 259.5939 15.06378810331103
STARLINK-1031,44736,53.0509,0.0006722,15.50740052,409.99805763508084,419.1301650091418,1 44736U 19074Z   25318.72872664  .00098310  00000+0  16658-2 0  9994,2 44736  53.0509 327.6946 0006722 337.4191  22.6521 15.50740052331644
STARLINK-1036,44741,53.0553,0.000143,15.06400117,546.2208745576445,548.201524142658,1 44741U 19074AE  25318.53593213  .00008984  00000+0  62126-3 0  9999,2 44741  53.0553   3.5616 0001430  91.3447 268.7705 15.06400117331119
STARLINK-1039,44744,53.0528,0.0001867,15.13925676,522.9533702022063,525.530718537374,1 44744U 19074AH  25318.47091661  .00007555  00000+0  42825-3 0  9992,2 44744  53.0528  21.1280 0001867 211.7591 148.3289 15.13925676330860
STARLINK-1042,44747,53.0466,0.0003475,15.43894294,432.2614730716723,436.9963453785822,1 44747U 19074AL  25318.31884338  .00030986  00000+0  67793-3 0  9994,2 44747  53.0466 285.7897 0003475 115.3625 244.7740 15.43894294332218
STARLINK-1043,44748,53.054,0.0001184,15.09982011,535.4362544049918,537.0735824112708,1 44748U 19074AM  25318.70366626  .00496765  00000+0  28512-1 0  9998,2 44748  53.0540  22.7711 0001184  86.9435 273.1691 15.09982011330860
STARLINK-1046,44751,53.0558,0.000105,15.06378948,546.5489116642457,548.0032484110543,1 44751U 19074AQ  25318.58936914 -.00007248  00000+0 -46848-3 0  9991,2 44751  53.0558  23.3230 0001050  96.1379 263.9730 15.06378948330842
STARLINK-1047,44752,53.0724,0.000184,15.29659449,475.568218702183,478.09084638615786,1 44752U 19074AR  25318.28625144  .00014296  00000+0  50209-3 0  9994,2 44752  53.0724 323.9179 0001840 195.5706 164.5237 15.29659449331666
STARLINK-1048,44753,53.0549,0.0001209,15.06380995,546.4325244555848,548.1070878213095,1 44753U 19074AS  25318.34980862  .00002523  00000+0  18830-3 0  9997,2 44753  53.0549 344.3957 0001209  87.3651 272.7476 15.06380995331365
STARLINK-1053,44758,53.0397,0.0004751,15.62588833,376.9712785240199,383.393033386008,1 44758U 19074AX  25318.17564957  .00077942  00000+0  85402-3 0  9992,2 44758  53.0397 298.1210 0004751  69.8564 290.2960 15.62588833332011
STARLINK-1054,44759,53.0305,0.0005753,16.10999642,240.2926542451778,247.91220293171045,1 44759U 19074AY  25318.27867244  .01027529  64665-3  10010-2 0  9999,2 44759  53.0305 317.5644 0005753  42.2637 317.8839 16.10999642329382
STARLINK-1060,44765,53.0522,0.000606,15.6659414,364.56936654069796,372.74648198890736,1 44765U 19074BE  25318.91670139  .00057884  00000+0  54376-3 0  9991,2 44765  53.0522 340.3433 0006060  27.7465 202.2123 15.66594140  5950
STARLINK-1063,44768,53.0543,0.0001443,15.06391135,546.239396302175,548.2380597372821,1 44768U 19074BH  25318.71102278  .00006771  00000+0  47313-3 0  9998,2 44768  53.0543  22.7783 0001443  99.0016 261.1136 15.06391135330872
STARLINK-1067,44771,53.0554,0.0001141,15.06380601,546.48082466299,548.0612027717207,1 44771U 19074BL  25318.56726528 -.00001933  00000+0 -11095-3 0  9990,2 44771  53.0554  23.4238 0001141  74.0992 286.0123 15.06380601330847
STARLINK-1068,44772,53.0552,0.0001354,15.06361369,546.3922506934459,548.2676671459221,1 44772U 19074BM  25318.42537571  .00017578  00000+0  11973-2 0  9998,2 44772  53.0552   4.0609 0001354  96.9121 263.2022 15.06361369331099
STARLINK-1112,44925,53.0482,0.0002573,15.56571549,395.84478027346086,399.3315684481868,1 44925U 20001M   25318.91670139  .00085764  00000+0  11796-2 0  9997,2 44925  53.0482  94.5893 0002573 210.5813 145.7565 15.56571549  5931
STARLINK-1114,44927,53.051,9.36e-05,15.06383219,546.6147723247786,547.9112072028629,1 44927U 20001P   25318.79580963  .00002688  00000+0  19937-3 0  9990,2 44927  53.0510 142.3977 0000936  68.8398 291.2691 15.06383219322538
STARLINK-1123,44930,53.0586,8.6e-05,15.06390218,546.645955967334,547.8371210759606,1 44930U 20001S   25318.81054718  .00000199  00000+0  32214-4 0  9990,2 44930  53.0586 142.3344 0000860 355.5231   4.5751 15.06390218322530
STARLINK-1144,44933,53.042,0.0005768,15.64810648,369.88888025511824,377.67789561463906,1 44933U 20001V   25318.91670139  .00001095  00000+0  16611-4 0  9994,2 44933  53.0420  70.8790 0005768 140.2713 219.1457 15.64810648  5786
STARLINK-1094,44941,53.0533,9.31e-05,15.06380306,546.6271622991671,547.916673439674,1 44941U 20001AD  25318.49172442  .00001838  00000+0  14233-3 0  9992,2 44941  53.0533 123.7628 0000931  44.8371 315.2693 15.06380306322763
STARLINK-1096,44942,52.9818,0.0005759,16.02803376,262.8326184451407,270.4860948887499,1 44942U 20001AE  25318.78549753  .00564202  15730-3  91596-3 0  9994,2 44942  52.9818 231.8360 0005759 120.6878 239.4720 16.02803376326294
STARLINK-1122,44949,53.0523,0.0001591,15.06377462,546.1788005777989,548.3824684691044,1 44949U 20001AM  25318.84557311 -.00000305  00000+0 -15678-5 0  9997,2 44949  53.0523 122.1706 0001591  88.8122 271.3049 15.06377462322817
STARLINK-1080,44961,53.0534,0.0001338,15.06380843,546.3436525133966,548.196891499385,1 44961U 20001AZ  25318.84372157 -.00002057  00000+0 -11933-3 0  9998,2 44961  53.0534 102.1810 0001338 107.7687 252.3448 15.06380843323105
STARLINK-1090,44968,53.0519,0.0001256,15.06374722,546.419198941283,548.1588659606341,1 44968U 20001BG  25318.38297759 -.00000094  00000+0  12615-4 0  9995,2 44968  53.0519 104.2499 0001256 105.6791 254.4336 15.06374722323033
STARLINK-1107,44972,53.0067,0.0007511,15.7627194,335.9674080380473,346.06091691431993,1 44972U 20001BL  25318.91670139  .00324066  00000+0  19458-2 0  9993,2 44972  53.0067   9.5307 0007511   8.1551 319.3186 15.76271940  6062
STARLINK-1132,45044,53.054,0.0001052,15.06374832,546.560140524246,548.0172500905383,1 45044U 20006A   25318.67417529  .00008127  00000+0  56423-3 0  9995,2 45044  53.0540  62.9423 0001052  93.4295 266.6814 15.06374832319401
STARLINK-1131,45047,53.0543,0.0001072,15.06388327,546.5049330324509,547.9897354337099,1 45047U 20006D   25318.65027409 -.00000837  00000+0 -37292-4 0  9996,2 45047  53.0543  83.5904 0001072  93.7391 266.3721 15.06388327319118
STARLINK-1134,45048,53.0401,0.0012282,15.26667851,477.3514930892361,494.21202312665173,1 45048U 20006E   25297.87285069  .00016521  00000+0  63194-3 0  9999,2 45048  53.0401 155.6330 0012282 116.8822 243.3433 15.26667851316281
STARLINK-1156,45054,53.0522,0.0001255,15.06382662,546.3955590078567,548.1338348337831,1 45054U 20006L   25318.35532682 -.00001381  00000+0 -73856-4 0  9996,2 45054  53.0522  84.3732 0001255  73.6634 286.4493 15.06382662319071
STARLINK-1159,45057,53.054,0.0001082,15.51271842,412.2768207987501,413.7464253607841,1 45057U 20006P   25318.91670139  .00056316  00000+0  94534-3 0  9992,2 45057  53.0540  77.7705 0001082  40.0710 338.4106 15.51271842  5899
STARLINK-1166,45060,53.0524,0.000118,15.06383786,546.4440549650344,548.0784489524967,1 45060U 20006S   25318.64651832  .00004605  00000+0  32799-3 0  9994,2 45060  53.0524  83.0672 0001180  82.7872 277.3251 15.06383786319126
STARLINK-1169,45061,53.0569,0.0001013,15.0638288,546.5624856452678,547.9655718936974,1 45061U 20006T   25318.65389315 -.00000539  00000+0 -17343-4 0  9993,2 45061  53.0569  83.0361 0001013  62.8264 297.2828 15.06382880319125
STARLINK-1171,45062,53.052,0.0005156,15.35280563,456.56148397131255,463.6130608410167,1 45062U 20006U   25318.75649318  .00014765  00000+0  43486-3 0  9997,2 45062  53.0520  77.5039 0005156 321.1062  38.9568 15.35280563319210
STARLINK-1133,45064,53.0561,0.0001477,15.06390865,546.2166774218276,548.262433656334,1 45064U 20006W   25318.65206133  .00021941  00000+0  14877-2 0  9997,2 45064  53.0561  63.0395 0001477 108.3089 251.8061 15.06390865319408
STARLINK-1167,45071,53.0533,0.0001591,15.06386258,546.1518458527717,548.3555051657195,1 45071U 20006AD  25318.67785780  .00001285  00000+0  10521-3 0  9999,2 45071  53.0533  62.9251 0001591  94.1557 265.9614 15.06386258319404
STARLINK-1168,45072,53.0532,0.0001278,15.06380887,546.3850701177435,548.1552041819996,1 45072U 20006AE  25318.48250314  .00013172  00000+0  90201-3 0  9990,2 45072  53.0532  63.8020 0001278 110.3075 249.8052 15.06380887319371
STARLINK-1172,45074,53.0546,0.0002471,15.06393769,545.5193967740961,548.9419134692562,1 45074U 20006AG  25318.55991672  .00024460  00000+0  16555-2 0  9990,2 45074  53.0546  63.4566 0002471 103.1835 256.9430 15.06393769319382
